[{"OBJECT_NAME":"HULIANWANG DIGUI-53","OBJECT_ID":"2025-168E","EPOCH":"2026-03-09T23:11:05.836128","MEAN_MOTION":13.29338971,"ECCENTRICITY":0.00084756,"INCLINATION":50.0053,"RA_OF_ASC_NODE":321.558,"ARG_OF_PERICENTER":154.5968,"MEAN_ANOMALY":205.5323,"EPHEMERIS_TYPE":0,"CLASSIFICATION_TYPE":"U","NORAD_CAT_ID":65110,"ELEMENT_SET_NO":999,"REV_AT_EPOCH":2949,"BSTAR":0.00019740347,"MEAN_MOTION_DOT":-3.2e-7,"MEAN_MOTION_DDOT":0},{"OBJECT_NAME":"UNKNOWN","OBJECT_ID":"","EPOCH":"2026-03-08T06:29:59.000064","MEAN_MOTION":13.20472338,"ECCENTRICITY":0.0169693,"INCLINATION":102.4115,"RA_OF_ASC_NODE":189.4901,"ARG_OF_PERICENTER":33.9798,"MEAN_ANOMALY":327.2043,"EPHEMERIS_TYPE":0,"CLASSIFICATION_TYPE":"U","NORAD_CAT_ID":81899,"ELEMENT_SET_NO":999,"REV_AT_EPOCH":59027,"BSTAR":0.0049166,"MEAN_MOTION_DOT":2.09e-5,"MEAN_MOTION_DDOT":0}]
